{
  "norad_id": 62915,
  "name": "STARLINK-11555 [DTC]",
  "history": [
    {
      "epoch": "2026-03-28T17:31:27.008544Z",
      "apogee_km": 357.08502570602195,
      "perigee_km": 354.492194989014,
      "latitude_deg": 1.2913161389556304e-05,
      "longitude_deg": 144.15575026095937,
      "height_km": 354.7118200180929,
      "semi_major_axis_km": 6733.925610347518,
      "eccentricity": 0.00019252,
      "inclination_deg": 42.9991,
      "raan_deg": 233.1647,
      "arg_perigee_deg": 310.9271,
      "mean_anomaly_deg": 49.143,
      "mean_motion_rev_day": 15.710872
    },
    {
      "epoch": "2026-03-29T02:40:48.174816Z",
      "apogee_km": 357.34349672091867,
      "perigee_km": 355.3150754755452,
      "latitude_deg": 2.9661834006668508e-05,
      "longitude_deg": 4.1413566595690945,
      "height_km": 355.87055918001244,
      "semi_major_axis_km": 6734.466286098232,
      "eccentricity": 0.0001506,
      "inclination_deg": 43.0016,
      "raan_deg": 230.8645,
      "arg_perigee_deg": 283.1907,
      "mean_anomaly_deg": 76.8793,
      "mean_motion_rev_day": 15.70898002
    },
    {
      "epoch": "2026-03-29T02:40:48.175680Z",
      "apogee_km": 357.34315999760474,
      "perigee_km": 355.31541219886003,
      "latitude_deg": 2.5820898184507994e-05,
      "longitude_deg": 4.1413489541974045,
      "height_km": 355.87063600746035,
      "semi_major_axis_km": 6734.466286098232,
      "eccentricity": 0.00015055,
      "inclination_deg": 43.0016,
      "raan_deg": 230.8645,
      "arg_perigee_deg": 283.1907,
      "mean_anomaly_deg": 76.8793,
      "mean_motion_rev_day": 15.70898002
    }
  ]
}